featureType,featureId,name,shop,brand,hours,latitude,longitude
node,317124777,Panera Bread,,Panera Bread,,37.7760504,-122.3939630
node,317124809,City Gourmet Deli,,,,37.7801650,-122.3946256
node,358116917,McDonald's,,McDonald's,,37.7263814,-122.4762258
node,365489480,Delica,,,,37.7955496,-122.3931929
node,383509298,Jack in the Box,,Jack in the Box,,37.7872518,-122.4100500
node,432817342,Burger King,,Burger King,,37.7831831,-122.4210960
node,432826225,Subway,,Subway,,37.7839182,-122.4194876
node,434874627,In-N-Out Burger,,In-N-Out Burger,,37.8077668,-122.4184666
node,527744442,KFC Taco Bell,,,,37.7288885,-122.4307199
node,529656139,Tony's Cable Car,,,,37.7828529,-122.4448572
node,615277748,McDonald's,,McDonald's,,37.7234803,-122.4554730
node,647656796,Memphis Minnie's,,,,37.7720644,-122.4316640
node,647656836,Metro Caffe,,,,37.7718907,-122.4305330
node,647656857,Love 'n' Haight,,,,37.7718999,-122.4313245
node,647656860,Mythic Pizza,,,,37.7719058,-122.4312812
node,647656864,Berliner Berliner,,,,37.7719157,-122.4311673
node,725554114,Beep's Burgers,,,,37.7232243,-122.4538840
node,731989577,Domino's,,Domino's,,37.7862682,-122.4176924
node,732005598,Irving Pizza,,,,37.7861368,-122.4187653
node,761937484,Extreme Pizza,,Extreme Pizza,,37.7774802,-122.4071839
node,808884817,Subway,,Subway,,37.7853321,-122.4083629
node,808884825,Burger King,,Burger King,,37.7850921,-122.4079256
node,903709625,China Express,,,,37.7523340,-122.4186296
node,903709629,Truly Mediteranean,,,,37.7648278,-122.4222609
node,950977345,Subway,,Subway,,37.7944451,-122.3967654
node,983388331,Subway,,Subway,,37.7781961,-122.4157435
node,1003283711,Viking's Giant Subs,,,,37.7333904,-122.4343103
node,1106966270,El Castillito,,,,37.7687849,-122.4292661
node,1220797685,B&J 1/4 lb. Burgers,,,,37.7223097,-122.3959425
node,1221102930,Golden City,,,,37.7318084,-122.3913825
node,1229133895,Mama Mia Pizza,,,,37.7233625,-122.4547858
node,1229745480,Soup Freaks,,,,37.7867758,-122.4009386
node,1229745516,,,,,37.7803301,-122.4076377
node,1229920544,McDonald's,,McDonald's,,37.7131382,-122.4445763
node,1229920652,Pizza Roma,,,,37.7172989,-122.4400805
node,1230343363,Quickly,,,,37.7268295,-122.4031215
node,1230343376,J. Georgie's Donuts & Hamburger,,,,37.7308314,-122.4050974
node,1230343502,Hawaian Drive-Inn,,,,37.7286624,-122.4042360
node,1230343520,Subway,,Subway,,37.7289785,-122.4039770
node,1238299642,Sam Jordan's,,,,37.7408532,-122.3888248
node,1238299653,Crown Burger,,,,37.7410629,-122.3887499
node,1238299666,Taqueria La Laguna,,,,37.7415600,-122.3885365
node,1243846535,Fish & Chicken,,,,37.7322794,-122.3919588
node,1320562860,Jamba Juice,,Jamba Juice,,37.7876872,-122.4009468
node,1534940815,Super Duper Burgers,,,,37.7639521,-122.4338053
node,1613829032,Subway,,Subway,,37.7870460,-122.3988140
node,1617283388,Chipotle,,Chipotle,,37.7903659,-122.3994026
node,1617283400,Jamba Juice,,Jamba Juice,,37.7914771,-122.3993698
node,1617283907,Noah's Bagels,,Noah's Bagels,,37.7914529,-122.3997805
node,1617460471,Togo's,,Togo's,,37.7967253,-122.4003352
node,1621235734,Jenny's Burger,,,,37.7653016,-122.4665892
node,1629213217,Zog's Dogs,,,,37.7885642,-122.4027028
node,1630822728,What's Up Dog!,,,,37.7785410,-122.4153220
node,1762825987,KFC,,KFC,,37.7812348,-122.4641684
node,1801237430,TJ Cafe,,,,37.7747769,-122.5100026
node,1809593818,Ono Hawaiian BBQ,,,,37.7337908,-122.4893753
node,1809593825,Noah's Bagels,,Noah's Bagels,,37.7325339,-122.4898996
node,1809593828,Chipotle,,Chipotle,,37.7325296,-122.4899746
node,1809593837,Quiznos,,Quiznos,,37.7337950,-122.4892973
node,1827274613,Domino's,,Domino's,,37.7807874,-122.4756807
node,1839527427,Escape From New York Pizza,,,,37.7554829,-122.4196451
node,1873973264,Whiz Burgers,,,,37.7618396,-122.4173776
node,2057396818,Popeyes,,Popeyes,,37.7166057,-122.4413580
node,2057447435,Subway,,Subway,,37.7208003,-122.4375104
node,2057447439,Little Joe's Pizzeria,,,,37.7184272,-122.4397567
node,2101121572,Subway,,Subway,,37.7768183,-122.3948860
node,2240839575,SBC Pizza,,,,37.7785737,-122.3921766
node,2240839584,The Bagel Bakery,,,,37.7795923,-122.3915835
node,2240839587,Taco Bell,,Taco Bell,,37.7786615,-122.3927737
node,2240839590,Victor's,,,,37.7787077,-122.3932034
node,2321302075,Harvey's,,Harvey's,,37.7607716,-122.4351823
node,2338760557,Subway,,Subway,,37.7690726,-122.3903171
node,2338836801,Popeyes,,Popeyes,,37.7748604,-122.4379581
node,2340006882,Noah's Bagels,,Noah's Bagels,,37.8005595,-122.4373837
node,2340996333,Chipotle,,Chipotle,,37.8078080,-122.4178430
node,2365742146,McDonald's,,McDonald's,,37.7889505,-122.4014996
node,2394661178,Burger King,,Burger King,,37.7455949,-122.4202183
node,2502767191,Los Colores Taqueria,,,,37.7852070,-122.4166578
node,2613888359,Chipotle,,Chipotle,,37.7897034,-122.4040073
node,2713438126,Subway,,Subway,,37.7233172,-122.4822210
node,2718062342,Estela's,,,,37.7718826,-122.4303038
node,2718062344,Walking Fish,,,,37.7719259,-122.4303170
node,2741195016,Jamba Juice,,Jamba Juice,,37.7692918,-122.4277262
node,2881830801,Pastel Brazzuca,,,,37.7662819,-122.4019760
node,2895323817,Subway,,Subway,,37.7759755,-122.4196734
node,3069400840,El Rancho Grande,,,,37.7697951,-122.4495174
node,3123283505,McDonald's,,McDonald's,,37.7939006,-122.3990657
node,3301285862,Jamba Juice,,Jamba Juice,,37.7639211,-122.4661799
node,3303358461,Subway,,Subway,,37.8083269,-122.4140067
node,3375035635,Mymy,,,,37.7909421,-122.4192204
node,3375056283,Roam Artisan Burgers,,,,37.7876482,-122.4339429
node,3379321535,"Saiwalks, Vietnamese Street Food",,,,37.8003743,-122.4376967
node,3379996817,Super Duper Burger,,,,37.8002850,-122.4397006
node,3391850893,McDonald's,,McDonald's,,37.8082440,-122.4145370
node,3396513641,Carl's Jr.,,Carl's Jr.,,37.7842915,-122.4087225
node,3397836578,Chipotle,,Chipotle,,37.7842358,-122.4036734
node,3397875325,Super Duper Burgers,,,,37.7848683,-122.4035456
node,3397910051,Super Duper Burgers,,,,37.7869373,-122.4040148
node,3397923104,Oasis Grill,,,,37.7870859,-122.4038287
node,3540104222,Easy Breezy,,,,37.7404310,-122.4665130
node,3540104224,Calibur,,,,37.7401543,-122.4667867
node,3605423539,Pizzalicious,,,,37.7880065,-122.4200461
node,3622464001,Burrito Loco,,,,37.7408775,-122.4655297
node,3622464003,Submarine Center,,,,37.7408061,-122.4654015
node,3642090339,Sweet greens,,,,37.7872668,-122.3986501
node,3674255699,Park Gyros,,,,37.7657898,-122.4665914
node,3674278789,Irving Subs and Cheese Shop,,,,37.7640524,-122.4694092
node,3699163029,grubbin',,,,37.7429359,-122.4812611
node,3781718457,El Burrito Express,,,,37.7425918,-122.4833491
node,3801395644,North Beach Pizza,,,,37.7672262,-122.4529946
node,3801412030,Happy Donuts,,,,37.7695204,-122.4517666
node,3875122061,Gelato Classico Italian,,,,37.8006099,-122.4088891
node,3881440386,Tanguito,,,,37.8074752,-122.4172288
node,3931507112,Pizza Zone,,,,37.8068444,-122.4182366
node,3931507136,,,,,37.8070416,-122.4187653
node,3986912498,Nizario's,,,,37.7977076,-122.4067101
node,3993039693,iTea,,,,37.7635139,-122.4811860
node,4017234500,Tpumps,,,,37.7636366,-122.4786001
node,4022689972,Mustafio's Pizza,,,,37.7870636,-122.4198172
node,4022712099,J. Georgie's Donuts Teriyaki & Hamburger,,,,37.7651934,-122.4151131
node,4086950189,Barbary Coast,,,,37.7846160,-122.4087510
node,4118236789,Ziggy's Burger,,,,37.7939497,-122.3966629
node,4129615925,Super Duper Burgers,,,,37.7914507,-122.4040574
node,4194116711,Sorabol Korean BBQ & Asian,,,,37.7842253,-122.4032414
node,4194116712,Fresca Garden,,,,37.7839905,-122.4028082
node,4214359692,Domino's,,Domino's,,37.7534897,-122.4971580
node,4242200927,Pupuseria El Golazo,,,,37.7136180,-122.4299824
node,4248537989,Domino's,,Domino's,,37.7428040,-122.4057510
node,4259744391,Hot Spud,,,,37.8077335,-122.4138928
node,4259746694,Eggcellent Waffles,,,,37.7896538,-122.4118742
node,4259754590,Wing wings,,,,37.7723610,-122.4292563
node,4317737810,The Lunch Box,,,,37.7257108,-122.4494426
node,4322166629,Taqueria Los Cayotes,,,,37.7651442,-122.4204315
node,4343748164,Hawker Alley,,,,37.7915160,-122.4043592
node,4396942820,The Organic Coup,,,,37.7947834,-122.3962573
node,4468299590,Lee's Deli,,,,37.7888918,-122.4015838
node,4482171289,Panda Express,,Panda Express,,37.7835636,-122.4070397
node,4485990000,Slice House by Tony Gemignani,,,,37.7764792,-122.4167552
node,4485990003,Project Juice,,,,37.7765894,-122.4165862
node,4485990004,Sushi & Oyster Bar,,,,37.7764389,-122.4170288
node,4485990005,Taco Bar,,,,37.7764241,-122.4169000
node,4545797576,Subway,,Subway,,37.7657762,-122.4666144
node,4548821686,Gyro Xpress,,,,37.7610068,-122.4348657
node,4548821707,Taco Loco,,,,37.7523856,-122.4179087
node,4556399233,Jamba,,Jamba,,37.7871677,-122.4075610
node,4556399235,Subway,,Subway,,37.7872281,-122.4075717
node,4564660590,Subway,,Subway,,37.7804833,-122.4802578
node,4586287693,Jack in the Box,,Jack in the Box,,37.8079165,-122.4159843
node,4592848043,Hazel's Kitchen,,,,37.7625201,-122.3960677
node,4613804471,Subway,,Subway,,37.7799558,-122.4071796
node,4613888432,Vikings Giant Subs,,,,37.8014018,-122.4250580
node,4613888435,Bobo's the Burger,,,,37.8013713,-122.4252835
node,4613901101,Pizzeria & Grill,,,,37.8055851,-122.4131167
node,4614040399,Columbus Pizza,,,,37.7981643,-122.4068499
node,4614040695,Sam's,,,,37.7979313,-122.4073539
node,4616049557,Phillies authentic cheesesteaks,,,,37.7160016,-122.4405766
node,4618173070,Munchboxx,,,,37.7944950,-122.4039275
node,4625105136,,,,,37.7825575,-122.4169342
node,4625128135,L&L Hawaiian Barbecue,,L&L Hawaiian Barbecue,,37.7910390,-122.4039792
node,4625131490,Tenmatsu Grab and Co.,,,,37.7912862,-122.4040363
node,4625139243,Allstars Donuts & Burgers,,,,37.7818115,-122.4153879
node,4625142121,The Dog House,,,,37.8084398,-122.4099566
node,4625221571,Lee's Sandwiches,,Lee's Sandwiches,,37.7836664,-122.4177655
node,4625221572,El Castillito Taquerias,,,,37.7819070,-122.4146132
node,4625221574,Taj Pizza,,,,37.7818095,-122.4152629
node,4625221576,Subway,,Subway,,37.7813500,-122.4168048
node,4625289655,Boston Market,,Boston Market,,37.7659117,-122.4079760
node,4626983989,McDonald's,,McDonald's,,37.7892272,-122.4077251
node,4627439389,Taco Bell,,Taco Bell,,37.7812230,-122.4641295
node,4628353543,Subway,,Subway,,37.7905928,-122.4045089
node,4628460555,Royality,,,,37.7861548,-122.4169415
node,4631708919,Pizzeria,,,,37.7847383,-122.4129996
node,4631708920,Young-Ellis,,,,37.7850015,-122.4126773
node,4632000732,Jamba Juice,,Jamba Juice,,37.7895996,-122.4036932
node,4632000733,Jimmy John's,,Jimmy John's,,37.7925096,-122.3989062
node,4632000739,Sushirrito,,,,37.7902169,-122.4037967
node,4632000742,Rooster and Rice,,,,37.7892684,-122.4039174
node,4632000807,SF Wraps,,,,37.7905380,-122.4041513
node,4632000811,Subway,,Subway,,37.7923499,-122.3999558
node,4632030144,Truck Stop,,,,37.7901812,-122.3973252
node,4632112446,Happy Donuts,,,,37.7915853,-122.3998048
node,4636119989,Subway,,Subway,,37.7931578,-122.4026987
node,4637210182,Hot Sauce and Panko,,,,37.7945086,-122.4179820
node,4637367276,Burger King,,Burger King,,37.7849912,-122.4084582
node,4637572306,Wings Plus,,,,37.7863082,-122.4132350
node,4637773274,Happy Donut,,,,37.7849883,-122.4109965
node,4840631552,Stelladoro Pizza,,,,37.7771074,-122.4380571
node,4852619953,Cheese Steak Shop,,,,37.7855574,-122.4397700
node,4900833141,Usagi,,,,37.7774018,-122.4631888
node,4925135942,Protect Juice,,,,37.7603091,-122.4215990
node,5000877804,Papa John's,,Papa John's,,37.7881885,-122.4176155
node,5093230381,Chipotle,,Chipotle,,37.7943113,-122.3975668
node,5098140329,Sunset Squares Slice Shop,,,,37.7747353,-122.4379230
node,5115916022,Bandit,,,,37.7864542,-122.4145370
node,5120918721,Roam Artisan Burgers,,,,37.7978587,-122.4285532
node,5182462005,Volare Pizza & Mediterranean Fusion,,,,37.7723075,-122.4297398
node,5274208225,Mission Picnic,,,,37.7552248,-122.4203609
node,5315466468,,,,,37.7852669,-122.4332747
node,5315466471,Extreme Pizza,,Extreme Pizza,,37.7856979,-122.4330068
node,5317135193,Extreme Pizza,,Extreme Pizza,,37.7976630,-122.4318193
node,5352315966,Casa Mexicana,,,,37.7681240,-122.4291930
node,5467205325,Roli Roti,,,,37.7953187,-122.3920657
node,5538797016,Ganim's,,,,37.7625973,-122.3944174
node,5595155727,Subway,,Subway,,37.7890185,-122.3946318
node,5617965927,Panda Express,,Panda Express,,37.7831922,-122.4325599
node,5617978242,Panda Express,,Panda Express,,37.7635408,-122.4583748
node,5617993834,Panda Express,,Panda Express,,37.7277353,-122.4766546
node,5762574353,Media noche,,,,37.7600455,-122.4207811
node,5836829985,Chisme Cantina,,,,37.7885975,-122.4146965
node,5840881685,Escape from New York Pizza,,,,37.7693229,-122.4514111
node,5987850711,Healthy U,,,,37.7221604,-122.4786762
node,6212265323,Louisiana Famous Fried Chicken,,Louisiana Famous Fried Chicken,,37.7783740,-122.3918680
node,6314144274,Sunday Bird,,,,37.7836875,-122.4325061
node,6314144275,Wise Sons Bagel & Bakery,,,,37.7836399,-122.4326272
node,6314144276,Subway,,Subway,,37.7835237,-122.4326084
node,6447016759,Chipotle,,Chipotle,,37.7818240,-122.4456575
node,6467152932,Subway,,Subway,,37.7945298,-122.3951458
node,6511795337,Jamba Juice,,Jamba,,37.7665115,-122.4087000
node,6530472559,Ladle & Leaf,,,,37.7935501,-122.3941502
node,6530472561,Cafe Elena,,,,37.7936789,-122.3941594
node,6530472562,Matko: Flavors of Korea,,,,37.7936516,-122.3939859
node,6530472564,Coast Poke Counter,,,,37.7935991,-122.3940659
node,6530472566,¡Unamas! Mexican Grill,,,,37.7937156,-122.3940894
node,6530472569,Osha Express,,,,37.7936327,-122.3942341
node,6530526413,Onigilly,,,,37.7945655,-122.3960494
node,6530526414,Harborview Go,,,,37.7947082,-122.3959848
node,6530526415,Sushi Kinta,,,,37.7946339,-122.3956683
node,6530526416,Crêpe & Curry,,,,37.7946559,-122.3954678
node,6582227558,Noodleme,,,,37.7920665,-122.3972060
node,6604012614,Mateo’s,,,,37.7757843,-122.4181249
node,6615153568,Subway,,Subway,,37.7302601,-122.4762820
node,6615295101,Chipotle,,Chipotle,,37.7276435,-122.4765212
node,6615295126,Shihlin Taiwan Street Snacks,,,,37.7277876,-122.4766092
node,6615295127,Marugame Udon,,,,37.7274721,-122.4764660
node,6635786989,Ike’s,,,,37.7280247,-122.4767410
node,6635786993,Villa,,,,37.7279982,-122.4766583
node,6635786998,Glowing,,,,37.7277486,-122.4768045
node,6635787003,Gangnam Korean BBQ,,,,37.7280211,-122.4768285
node,6635787006,Great Steak,,,,37.7279647,-122.4766116
node,6635787011,Tokyo Express,,,,37.7277355,-122.4767341
node,6635787016,Silk Road,,,,37.7278772,-122.4768742
node,6635787021,Poke Bowl,,,,37.7280034,-122.4769049
node,6654106657,Donario’s Pizza,,,,37.7795064,-122.4936093
node,6655857385,Chong Qing Xiao Mian,,,,37.7964224,-122.4053470
node,6685670585,StreetTaco,,,,37.7696520,-122.4489884
node,6699744287,Aria Korean Street Food,,,,37.7864900,-122.4180446
node,6757511694,Shake Shack,,,,37.7979181,-122.4355026
node,6773294856,Subway,,Subway,,37.7817210,-122.4455029
node,6791676317,Wing Lee B.B.Q. Restaurant,,,,37.7828079,-122.4645682
node,6815206677,Slice House,,,,37.7698306,-122.4475455
node,6833462301,Xiao Long Bao Restaurant,,,,37.7827776,-122.4658811
node,6833462308,King's Thai Cuisine #1,,,,37.7827537,-122.4661707
node,6833462347,Red A Bakery,,,,37.7830014,-122.4661387
node,6833789427,Hippie Thai Street Food,,,,37.7702801,-122.4457879
node,6833789439,VeganBurg,,,,37.7701718,-122.4464920
node,6852954255,Marina Submarine,,,,37.7968013,-122.4369675
node,6903764685,Ava and Joeseph 4 ever,,,,37.7697968,-122.4496113
node,6967455618,Ingleside Pizza,,,,37.7145139,-122.4702440
node,7236121692,Burger King,,Burger King,,37.7813691,-122.4612630
node,8660683671,Myrtle’s Good Pie,,,,37.7659521,-122.4021550
node,8755084919,Le Sandwich,,,,37.8016565,-122.4119210
node,8870738753,Boudin,,,,37.7286110,-122.4767787
node,8870738755,Jamba Juice,,Jamba Juice,,37.7275057,-122.4769463
node,8870738757,Honey Bar,,,,37.7280008,-122.4767451
node,9181840531,Bellissimo Pizza,,,,37.7884521,-122.4156131
node,9194418333,The Halal Guys,,The Halal Guys,,37.7862637,-122.4104324
node,9200430821,Takoyaki Yamachan,,,,37.7850947,-122.4305027
node,9251446487,Project Juice,,,,37.7606743,-122.4351669
node,9319548160,Shake Shack,,Shake Shack,,37.7843163,-122.4063045
node,9319555845,NooBowl,,,,37.7843350,-122.4059497
node,9319558943,Umai Savory Hot Dogs,,,,37.7844144,-122.4059364
node,9319574462,Koja Kitchen,,,,37.7844425,-122.4059800
node,9354907012,Ike's Love & Sandwiches,,,,37.7851535,-122.4197631
node,9408415654,Bite,,,,37.7884611,-122.4155373
node,9412069589,The Boys' Deli,,,,37.7922661,-122.4032401
node,9451941409,Ohana Poke Bar,,,,37.7937265,-122.4047853
node,9456812856,Bonchon Chicken,,Bonchon Chicken,,37.7845223,-122.4034680
node,9546656576,Poke Bowl,,,,37.7882695,-122.4037001